STARLINK-1131           
1 45047U 20006D   26068.86193328 -.00000150  00000+0  70610-5 0  9995
2 45047  53.1594 280.1814 0001169  85.5645 274.5489 15.30189910336573
2023-104A               
1 57424U 23104A   26065.78279804  .00015492  00000+0  48200-3 0  9993
2 57424  97.2792 135.5625 0009333 122.1915 238.0234 15.33350758146346
